[{"OBJECT_NAME":"ION SCV-004","OBJECT_ID":"2022-002K","EPOCH":"2026-03-09T16:32:03.244416","MEAN_MOTION":15.29369331,"ECCENTRICITY":0.00072157,"INCLINATION":97.2961,"RA_OF_ASC_NODE":128.2294,"ARG_OF_PERICENTER":1.6783,"MEAN_ANOMALY":358.448,"EPHEMERIS_TYPE":0,"CLASSIFICATION_TYPE":"U","NORAD_CAT_ID":50993,"ELEMENT_SET_NO":999,"REV_AT_EPOCH":23008,"BSTAR":0.00023198467,"MEAN_MOTION_DOT":6.538e-5,"MEAN_MOTION_DDOT":0},{"OBJECT_NAME":"STARLINK-35774","OBJECT_ID":"2025-247U","EPOCH":"2026-03-09T15:15:31.901760","MEAN_MOTION":15.30182502,"ECCENTRICITY":0.0001097,"INCLINATION":53.1571,"RA_OF_ASC_NODE":191.8153,"ARG_OF_PERICENTER":84.7187,"MEAN_ANOMALY":275.3939,"EPHEMERIS_TYPE":0,"CLASSIFICATION_TYPE":"U","NORAD_CAT_ID":66283,"ELEMENT_SET_NO":999,"REV_AT_EPOCH":2102,"BSTAR":0.00082924,"MEAN_MOTION_DOT":0.00024267,"MEAN_MOTION_DDOT":0}]
